GSAT0217 (GALILEO 21)   
1 43057U 17079C   26086.99266438 -.00000017  00000+0  00000+0 0  9999
2 43057  55.0995 223.7365 0001844 336.2846  23.6537  1.70474585 51600
