{
  "norad_id": 43057,
  "name": "GSAT0217 (GALILEO 21)",
  "history": [
    {
      "epoch": "2026-03-27T23:49:26.202432Z",
      "apogee_km": 23227.573626486723,
      "perigee_km": 23216.657053423747,
      "latitude_deg": -4.830559588722116e-05,
      "longitude_deg": 40.94486270828122,
      "height_km": 23217.385132497708,
      "semi_major_axis_km": 29600.252339955234,
      "eccentricity": 0.0001844,
      "inclination_deg": 55.0995,
      "raan_deg": 223.7365,
      "arg_perigee_deg": 336.2846,
      "mean_anomaly_deg": 23.6537,
      "mean_motion_rev_day": 1.70474585
    }
  ]
}